OPTICUBE 04             
1 41851U 16067D   18242.20022847  .00000707  00000-0  67269-4 0  9999
2 41851  97.9232 331.2668 0007225 280.3395  79.7011 14.96698329 98164
AEROCUBE 8D             
1 41852U 16067E   18241.77730559  .00000240  00000-0  26410-4 0  9992
2 41852  97.9239 330.6753 0008418 281.0182  79.0092 14.96533985 98086
AEROCUBE 8C             
1 41853U 16067F   18242.19442172  .00000774  00000-0  73462-4 0  9992
2 41853  97.9242 331.0555 0008449 280.8717  79.1553 14.96500726 98148
PROMETHEUS 2-1          
1 41854U 16067G   18242.19518927  .00000964  00000-0  89895-4 0  9993
2 41854  97.9249 331.0842 0008738 280.1725  79.8511 14.96626454 98146
PROMETHEUS 2-3          
1 41855U 16067H   18242.19791288  .00001020  00000-0  94757-4 0  9994
2 41855  97.9252 331.0932 0008877 280.8346  79.1875 14.96625892 98142
ITF-2                   
1 41932U 98067KU  18242.10806770  .00044187  00000-0  21699-3 0  9999
2 41932  51.6306 318.4977 0002194  72.8623 287.2619 15.81741696 92447
WASEDA-SAT3             
1 41933U 98067KV  18242.21076688  .00135486  18412-4  33595-3 0  9990
2 41933  51.6299 305.4305 0005063  15.2414 344.8746 15.95628098 92623
AOBA-VELOX 3            
1 41935U 98067KX  18242.12364883  .00084819  00000-0  28738-3 0  9995
2 41935  51.6330 311.0118 0003137  28.7318 331.3860 15.89179219 92647
INS-1B                  
1 41954U 17008G   18241.83637292  .00001492  00000-0  66033-4 0  9993
2 41954  97.4396 305.1664 0011155  94.9996 265.2515 15.23190798 85214
BGUSAT                  
1 41999U 17008BD  18241.86174438  .00002297  00000-0  95207-4 0  9992
2 41999  97.4445 306.4772 0010172 109.4375 250.7962 15.24878585 84653
DIDO-2                  
1 42000U 17008BE  18241.90140518  .00001197  00000-0  53360-4 0  9995
2 42000  97.4417 305.6976 0010264 110.2624 249.9717 15.23334550 84625
PEASSS                  
1 42015U 17008BV  18242.16826940  .00001403  00000-0  60563-4 0  9993
2 42015  97.4416 306.5092 0008095 114.2888 245.9196 15.24171615 85185
AL-FARABI 1             
1 42016U 17008BW  18241.87733651  .00001551  00000-0  65761-4 0  9996
2 42016  97.4421 306.4746 0008010 115.3273 244.8795 15.24627344 85272
NAYIF-1 (EO-88)         
1 42017U 17008BX  18241.87039965  .00001600  00000-0  67681-4 0  9992
2 42017  97.4419 306.4751 0008010 115.5175 244.6891 15.24652386 85290
HAVELSAT                
1 42700U 98067LH  18241.83678285  .00032503  00000-0  21337-3 0  9998
2 42700  51.6336 337.0387 0001527 175.9870 184.1142 15.75417704 73611
CXBN-2                  
1 42704U 98067LM  18242.13303870  .00035088  00000-0  23455-3 0  9995
2 42704  51.6348 336.7937 0001694  41.2655 318.8473 15.74959561 73564
ICECUBE                 
1 42705U 98067LN  18242.21799193  .00175925  22872-4  49601-3 0  9993
2 42705  51.6463 321.6536 0004300  17.8259 342.2898 15.93124636 73837
PHOENIX                 
1 42706U 98067LP  18242.10703064  .00021082  00000-0  16099-3 0  9998
2 42706  51.6356 338.8778 0001148  54.3447 305.7658 15.72147591 73525
X-CUBESAT               
1 42707U 98067LQ  18241.65648845  .00040993  00000-0  25654-3 0  9992
2 42707  51.6332 337.2372 0001381  35.4084 324.7008 15.76396736 73496
QBEE50-LTU-OC           
1 42708U 98067LR  18242.22144695  .00031726  00000-0  21027-3 0  9995
2 42708  51.6347 335.8626 0001412  17.2475 342.8572 15.75210271 73525
ALTAIR PATHFINDER       
1 42711U 98067LS  18241.93115668  .00013894  00000-0  13673-3 0  9998
2 42711  51.6370 349.7467 0003491  90.2038 269.9357 15.66299607 73022
SHARC                   
1 42712U 98067LT  18242.16629704  .00026732  00000-0  24495-3 0  9995
2 42712  51.6380 349.8849 0001659  75.5040 284.6140 15.67567735 73285
ZA-AEROSAT              
1 42713U 98067LU  18242.13779776  .00021680  00000-0  17580-3 0  9992
2 42713  51.6354 342.0735 0002017  66.3135 293.8074 15.70689585 73143
LINK                    
1 42714U 98067LV  18242.21652422  .00230775  32224-4  54814-3 0  9995
2 42714  51.6196 320.4011 0007201 358.9544   1.1448 15.96200849 73548
CSUNSAT 1               
1 42715U 98067LW  18241.80283233  .00023767  00000-0  18481-3 0  9994
2 42715  51.6351 342.8570 0003115  72.9602 287.1737 15.71630556 73102
SPACECUBE               
1 42717U 98067LY  18241.81020008  .00029659  00000-0  19883-3 0  9999
2 42717  51.6312 338.3184 0000391 186.4452 173.6542 15.74983401 72531
HOOPOE                  
1 42718U 98067LZ  18241.81164349  .00050363  00000-0  27523-3 0  9993
2 42718  51.6292 333.7945 0000672  20.8045 339.2984 15.79347526 72597
NJUST-1                 
1 42722U 98067MB  18242.18309613  .00019342  00000-0  16492-3 0  9999
2 42722  51.6361 343.9100 0003907 146.0325 214.0923 15.69553183 72197
UNSW-ECO                
1 42723U 98067MC  18241.82666647  .00055022  00000-0  27979-3 0  9990
2 42723  51.6388 333.2276 0000637 108.0932 252.0139 15.80891880 72285
LILACSAT-1              
1 42725U 98067ME  18242.21521228  .00029251  00000-0  21353-3 0  9996
2 42725  51.6363 339.6018 0002352 142.2431 217.8733 15.73002768 72150
NSIGHT-1                
1 42726U 98067MF  18242.14112412  .00009450  00000-0  10897-3 0  9990
2 42726  51.6399 354.2346 0004840 145.8771 214.2535 15.62706725 71968
SNUSAT-1                
1 42727U 98067MG  18241.65641118  .00032841  00000-0  23933-3 0  9991
2 42727  51.6341 342.5496 0004395 103.1578 256.9911 15.72971337 72033
I-INSPIRE II            
1 42731U 98067ML  18241.53319385  .00069685  00000-0  33867-3 0  9994
2 42731  51.6353 333.4131 0003338  48.4240 311.7048 15.81772849 72037
POLYITAN-2-SAU          
1 42732U 98067MM  18241.79964071  .00038404  00000-0  24339-3 0  9990
2 42732  51.6334 337.5035 0003858  78.7187 281.4246 15.76133513 72001
SNUSAT-1B               
1 42733U 98067MN  18242.09662322  .00030138  00000-0  21062-3 0  9995
2 42733  51.6350 338.7704 0004032  88.6460 271.5001 15.74002626 72013
EXALTA-1                
1 42734U 98067MP  18242.16446963  .00068024  00000-0  30780-3 0  9997
2 42734  51.6272 329.2780 0001949  74.0689 286.0529 15.83315163 72099
BEEAGLESAT              
1 42736U 98067MR  18242.17101473  .00025661  00000-0  19582-3 0  9991
2 42736  51.6347 340.7749 0003532 142.1374 217.9873 15.72027898 72059
UCLSAT                  
1 42765U 17036A   18241.71520219  .00001584  00000-0  72291-4 0  9997
2 42765  97.3945 300.3597 0012009 170.7677 189.3782 15.22017669 65892
LITUANICASAT-2          
1 42768U 17036D   18241.92472053  .00002134  00000-0  97233-4 0  9990
2 42768  97.3960 300.1360 0016276 162.1902 197.9908 15.21641066 65779
AALTO-1                 
1 42775U 17036L   18241.72535568  .00001018  00000-0  49111-4 0  9999
2 42775  97.3937 299.7270 0014704 160.8623 199.3168 15.20860539 65673
URSA MAIOR              
1 42776U 17036M   18242.16841553  .00001023  00000-0  49211-4 0  9990
2 42776  97.3943 300.2287 0014622 159.4797 200.7029 15.20951092 65748
COMPASS 2               
1 42777U 17036N   18241.91687673  .00001830  00000-0  83145-4 0  9994
2 42777  97.3963 300.4958 0013474 162.4744 197.6960 15.21953244 65726
DIAMOND RED             
1 42783U 17036U   18241.93094577  .00001199  00000-0  56103-4 0  9990
2 42783  97.3945 300.3845 0012629 170.5548 189.5928 15.21600344 65724
PEGASUS                 
1 42784U 17036V   18242.15651057  .00001350  00000-0  62409-4 0  9993
2 42784  97.3947 300.7010 0012573 169.7196 190.4300 15.21820774 65762
DIAMOND GREEN           
1 42785U 17036W   18241.92971326  .00001209  00000-0  56549-4 0  9993
2 42785  97.3948 300.3988 0012509 171.0708 189.0752 15.21602088 65792
DIAMOND BLUE            
1 42786U 17036X   18241.92888738  .00001221  00000-0  57069-4 0  9990
2 42786  97.3947 300.3978 0012337 171.1957 188.9498 15.21602042 65792
NUDTSAT                 
1 42787U 17036Y   18241.91374809  .00001813  00000-0  81212-4 0  9993
2 42787  97.3952 300.7391 0012176 169.5082 190.6411 15.22467727 65585
SUCHAI                  
1 42788U 17036Z   18241.90286423  .00001425  00000-0  65153-4 0  9992
2 42788  97.3945 300.5830 0012215 169.9252 190.2231 15.22116615 65809
SKCUBE                  
1 42789U 17036AA  18241.90437820  .00001339  00000-0  61482-4 0  9997
2 42789  97.3942 300.5721 0012048 169.8740 190.2741 15.22067473 65725
VZLUSAT-1               
1 42790U 17036AB  18241.90216198  .00001802  00000-0  80715-4 0  9997
2 42790  97.3949 300.7346 0011719 169.5937 190.5544 15.22483620 65739
ROBUSTA-1B              
1 42792U 17036AD  18241.86595803  .00001377  00000-0  62872-4 0  9998
2 42792  97.3942 300.6120 0011598 170.6091 189.5364 15.22219272 65730
CICERO 6                
1 42793U 17036AE  18241.73762508  .00001280  00000-0  59038-4 0  9996
2 42793  97.3938 300.4539 0010650 171.8308 188.3103 15.22011195 65787
D-SAT                   
1 42794U 17036AF  18242.13937638  .00000314  00000-0  32696-4 0  9998
2 42794  97.5847 293.9743 0127871  36.7691 324.2215 14.90919308 64747
TOKI                    
1 42820U 98067MU  18242.22160203  .00025315  00000-0  20165-3 0  9992
2 42820  51.6348 343.3767 0002568  58.6611 301.4638 15.71013444 65484
MAZAALAI (NUMSAT-1)     
1 42822U 98067MW  18241.76127389  .00025257  00000-0  20450-3 0  9992
2 42822  51.6354 346.3125 0002517  62.3729 297.7523 15.70622269 65389
BRAC ONNESHA            
1 42823U 98067MX  18241.56073505  .00032219  00000-0  25758-3 0  9993
2 42823  51.6361 347.2445 0003937  94.2351 265.9097 15.70781663 65359
NIGERIAEDUSAT-1         
1 42824U 98067MY  18241.72329604  .00027438  00000-0  22275-3 0  9994
2 42824  51.6364 346.8510 0003911  95.8447 264.2997 15.70502913 65390
CORVUS BC2              
1 42846U 17042X   18241.78567773  .00000168  00000-0  22004-4 0  9991
2 42846  97.5893 141.9746 0008583 319.0401  41.0173 14.91848782 61343
CORVUS BC1              
1 42847U 17042Y   18241.95968121  .00000137  00000-0  18845-4 0  9997
2 42847  97.5892 142.2025 0008237 318.1934  41.8655 14.91948296 61360
